[{"OBJECT_NAME":"PARS 1","OBJECT_ID":"2024-039Q","EPOCH":"2026-03-09T22:32:57.959808","MEAN_MOTION":15.43438301,"ECCENTRICITY":0.00120623,"INCLINATION":97.4757,"RA_OF_ASC_NODE":46.9453,"ARG_OF_PERICENTER":109.8181,"MEAN_ANOMALY":250.4368,"EPHEMERIS_TYPE":0,"CLASSIFICATION_TYPE":"U","NORAD_CAT_ID":59065,"ELEMENT_SET_NO":999,"REV_AT_EPOCH":11332,"BSTAR":0.00033707671,"MEAN_MOTION_DOT":0.00015034,"MEAN_MOTION_DDOT":0},{"OBJECT_NAME":"STARLINK-36527","OBJECT_ID":"2026-020Q","EPOCH":"2026-03-09T22:00:01.999584","MEAN_MOTION":15.57466901,"ECCENTRICITY":0.00017124,"INCLINATION":42.9994,"RA_OF_ASC_NODE":140.4776,"ARG_OF_PERICENTER":283.3202,"MEAN_ANOMALY":141.7804,"EPHEMERIS_TYPE":0,"CLASSIFICATION_TYPE":"U","NORAD_CAT_ID":67631,"ELEMENT_SET_NO":999,"REV_AT_EPOCH":604,"BSTAR":-0.028699589,"MEAN_MOTION_DOT":-0.01911252,"MEAN_MOTION_DDOT":0}]
